STARLINK-2589
1 18371C 21038U   21326.16215863 -.00007429  00000-0 -49761-3 0  3261
2 18371  53.0539 193.0120 0001958  72.4839 147.1875 15.06414161    15
